INSAT-3DS               
1 58990U 24033A   24333.88313250 -.00000129  00000+0  00000+0 0  9999
2 58990   0.0417 269.5985 0001433 343.3159 215.4081  1.00271867 41400
GOES 19                 
1 60133U 24119A   24331.85363553 -.00000161  00000+0  00000+0 0  9998
2 60133   0.0108  76.6733 0000669 242.1911 325.2754  1.00270993  1276
METEOR-M2 4             
1 59051U 24039A   24334.17641288  .00000194  00000+0  10654-3 0  9993
2 59051  98.6223 292.1962 0007386  15.1813 344.9585 14.22307184 38940
TIANMU-1 20             
1 58661U 23208B   24334.10819868  .00016572  00000+0  76136-3 0  9994
2 58661  97.4140  82.9658 0009627 155.4674 204.7021 15.20413069 51190
TIANMU-1 21             
1 58662U 23208C   24334.11698691  .00018319  00000+0  80943-3 0  9997
2 58662  97.4179  83.5817 0009226 155.0449 205.1235 15.21733914 51229
TIANMU-1 22             
1 58663U 23208D   24334.15108173  .00015343  00000+0  72630-3 0  9991
2 58663  97.4197  83.0163 0005150 162.5754 197.5659 15.19427079 51181
TIANMU-1 15             
1 58700U 24004A   24333.89628160  .00013913  00000+0  67633-3 0  9999
2 58700  97.4597 152.3776 0008646 184.0627 176.0538 15.18505717 49739
TIANMU-1 16             
1 58701U 24004B   24334.14119841  .00013101  00000+0  63841-3 0  9996
2 58701  97.4523 152.3469 0008753 186.1695 173.9433 15.18435011 49778
TIANMU-1 17             
1 58702U 24004C   24334.12696737  .00014230  00000+0  69179-3 0  9993
2 58702  97.4564 152.5516 0007185 180.8402 179.2821 15.18508578 49762
TIANMU-1 18             
1 58703U 24004D   24334.10969640  .00013405  00000+0  65195-3 0  9995
2 58703  97.4585 152.6428 0007015 172.1164 188.0181 15.18508705 49769
